ONEWEB-0656             
1 55817U 23029X   24256.63498988  .00000032  00000+0  46875-4 0  9994
2 55817  87.9232  42.2188 0002041  78.5159 281.6203 13.20768661 76337
ONEWEB-0657             
1 55818U 23029Y   24256.44985470  .00000110  00000+0  24115-3 0  9990
2 55818  87.9100  72.8290 0002537  80.7396 279.4024 13.19723016 74138
ONEWEB-0658             
1 55819U 23029Z   24256.44509115  .00000013  00000+0  55233-6 0  9999
2 55819  87.9099  72.7650 0001963 108.1089 252.0257 13.19720072 74146
ONEWEB-0660             
1 55820U 23029AA  24256.46421696  .00000216  00000+0  54930-3 0  9995
2 55820  87.8943  57.4962 0001375 107.3457 252.7823 13.14506791 74969
ONEWEB-0661             
1 55821U 23029AB  24256.49907836  .00000114  00000+0  27240-3 0  9995
2 55821  87.8944  57.5569 0001243 102.4686 257.6583 13.14504942 74951
ONEWEB-0662             
1 55822U 23029AC  24256.45784654  .00000157  00000+0  38816-3 0  9991
2 55822  87.8945  57.5728 0001516 105.2986 254.8311 13.14505147 74997
ONEWEB-0663             
1 55823U 23029AD  24256.47505078  .00000030  00000+0  42038-4 0  9997
2 55823  87.9232  42.3108 0001571 110.3758 249.7544 13.20798474 76309
ONEWEB-0664             
1 55824U 23029AE  24256.39511064  .00000068  00000+0  13560-3 0  9999
2 55824  87.9232  42.3412 0001234  89.5953 270.5321 13.20772447 76293
